CZ-3B R/B               
1 66587U 25269B   25342.84491911  .00050405  42210-6  12608-2 0  9997
2 66587  51.3469 170.5472 7519772 228.0184  37.9661  2.02868797   372
STARLINK-36076          
1 66588U 25270A   25344.16668980 -.01875149  00000+0 -33295-1 0  9990
2 66588  42.9998 207.7917 0001672 265.0805 139.7969 15.52901539  3985
STARLINK-35447          
1 66589U 25270B   25344.16668980 -.01930598  00000+0 -33719-1 0  9992
2 66589  42.9995 207.7818 0001689 270.6555 138.0575 15.52904552  4091
STARLINK-35429          
1 66590U 25270C   25344.16668980 -.01940345  00000+0 -33907-1 0  9994
2 66590  42.9997 207.7869 0001800 266.1493 140.6473 15.52905212  4097
STARLINK-36058          
1 66591U 25270D   25344.16668980 -.01937347  00000+0 -33848-1 0  9997
2 66591  42.9995 207.7770 0001708 268.6242 142.0090 15.52906037  3987
STARLINK-36066          
1 66592U 25270E   25344.16668980 -.01930444  00000+0 -33717-1 0  9994
2 66592  42.9993 207.7722 0001721 269.9314 142.6171 15.52903369  3882
STARLINK-36031          
1 66593U 25270F   25344.16668980 -.01872015  00000+0 -33245-1 0  9990
2 66593  42.9994 207.7676 0001546 263.9440 150.5243 15.52892303  3985
STARLINK-36032          
1 66594U 25270G   25344.16668980 -.01936345  00000+0 -33831-1 0  9999
2 66594  42.9995 207.7627 0001708 268.7970 147.5850 15.52904754  3720
STARLINK-35711          
1 66595U 25270H   25344.16668980 -.01881700  00000+0 -33432-1 0  9991
2 66595  42.9996 207.7574 0001578 263.3539 154.9466 15.52898349  4098
STARLINK-35811          
1 66596U 25270J   25344.16668980 -.01940322  00000+0 -33908-1 0  9996
2 66596  42.9998 207.7526 0001750 270.5844 149.6334 15.52904428  4090
STARLINK-35820          
1 66597U 25270K   25344.16668980 -.01949738  00000+0 -34084-1 0  9993
2 66597  42.9995 207.7479 0001708 266.4669 155.6642 15.52910693  4097
STARLINK-35981          
1 66598U 25270L   25344.16668980 -.01878776  00000+0 -33365-1 0  9998
2 66598  42.9999 207.7433 0001621 268.1419 155.9048 15.52904307  3826
