CCSDS_OMM_VERS = 2.0
CREATION_DATE  = 
ORIGINATOR     = 

OBJECT_NAME    = CZ-3B R/B
OBJECT_ID      = 2025-269B
CENTER_NAME    = EARTH
REF_FRAME      = TEME
TIME_SYSTEM    = UTC
MEAN_ELEMENT_THEORY = SGP/SGP4

EPOCH          = 2025-12-08T20:16:41.011104
MEAN_MOTION    = 2.02868797
ECCENTRICITY   = .7519772
INCLINATION    = 51.3469
RA_OF_ASC_NODE = 170.5472
ARG_OF_PERICENTER = 228.0184
MEAN_ANOMALY   = 37.9661

EPHEMERIS_TYPE = 0
CLASSIFICATION_TYPE = U
NORAD_CAT_ID   = 66587
ELEMENT_SET_NO = 999
REV_AT_EPOCH   = 37
BSTAR          = .12608E-2
MEAN_MOTION_DOT = .50405E-3
MEAN_MOTION_DDOT = .4221E-6

CCSDS_OMM_VERS = 2.0
CREATION_DATE  = 
ORIGINATOR     = 

OBJECT_NAME    = STARLINK-36076
OBJECT_ID      = 2025-270A
CENTER_NAME    = EARTH
REF_FRAME      = TEME
TIME_SYSTEM    = UTC
MEAN_ELEMENT_THEORY = SGP/SGP4

EPOCH          = 2025-12-10T04:00:01.998720
MEAN_MOTION    = 15.52901539
ECCENTRICITY   = .0001672
INCLINATION    = 42.9998
RA_OF_ASC_NODE = 207.7917
ARG_OF_PERICENTER = 265.0805
MEAN_ANOMALY   = 139.7969

EPHEMERIS_TYPE = 0
CLASSIFICATION_TYPE = U
NORAD_CAT_ID   = 66588
ELEMENT_SET_NO = 999
REV_AT_EPOCH   = 398
BSTAR          = -.33295E-1
MEAN_MOTION_DOT = -.1875149E-1
MEAN_MOTION_DDOT = 0

CCSDS_OMM_VERS = 2.0
CREATION_DATE  = 
ORIGINATOR     = 

OBJECT_NAME    = STARLINK-35447
OBJECT_ID      = 2025-270B
CENTER_NAME    = EARTH
REF_FRAME      = TEME
TIME_SYSTEM    = UTC
MEAN_ELEMENT_THEORY = SGP/SGP4

EPOCH          = 2025-12-10T04:00:01.998720
MEAN_MOTION    = 15.52904552
ECCENTRICITY   = .0001689
INCLINATION    = 42.9995
RA_OF_ASC_NODE = 207.7818
ARG_OF_PERICENTER = 270.6555
MEAN_ANOMALY   = 138.0575

EPHEMERIS_TYPE = 0
CLASSIFICATION_TYPE = U
NORAD_CAT_ID   = 66589
ELEMENT_SET_NO = 999
REV_AT_EPOCH   = 409
BSTAR          = -.33719E-1
MEAN_MOTION_DOT = -.1930598E-1
MEAN_MOTION_DDOT = 0

CCSDS_OMM_VERS = 2.0
CREATION_DATE  = 
ORIGINATOR     = 

OBJECT_NAME    = STARLINK-35429
OBJECT_ID      = 2025-270C
CENTER_NAME    = EARTH
REF_FRAME      = TEME
TIME_SYSTEM    = UTC
MEAN_ELEMENT_THEORY = SGP/SGP4

EPOCH          = 2025-12-10T04:00:01.998720
MEAN_MOTION    = 15.52905212
ECCENTRICITY   = .00018
INCLINATION    = 42.9997
RA_OF_ASC_NODE = 207.7869
ARG_OF_PERICENTER = 266.1493
MEAN_ANOMALY   = 140.6473

EPHEMERIS_TYPE = 0
CLASSIFICATION_TYPE = U
NORAD_CAT_ID   = 66590
ELEMENT_SET_NO = 999
REV_AT_EPOCH   = 409
BSTAR          = -.33907E-1
MEAN_MOTION_DOT = -.1940345E-1
MEAN_MOTION_DDOT = 0

CCSDS_OMM_VERS = 2.0
CREATION_DATE  = 
ORIGINATOR     = 

OBJECT_NAME    = STARLINK-36058
OBJECT_ID      = 2025-270D
CENTER_NAME    = EARTH
REF_FRAME      = TEME
TIME_SYSTEM    = UTC
MEAN_ELEMENT_THEORY = SGP/SGP4

EPOCH          = 2025-12-10T04:00:01.998720
MEAN_MOTION    = 15.52906037
ECCENTRICITY   = .0001708
INCLINATION    = 42.9995
RA_OF_ASC_NODE = 207.7770
ARG_OF_PERICENTER = 268.6242
MEAN_ANOMALY   = 142.0090

EPHEMERIS_TYPE = 0
CLASSIFICATION_TYPE = U
NORAD_CAT_ID   = 66591
ELEMENT_SET_NO = 999
REV_AT_EPOCH   = 398
BSTAR          = -.33848E-1
MEAN_MOTION_DOT = -.1937347E-1
MEAN_MOTION_DDOT = 0

CCSDS_OMM_VERS = 2.0
CREATION_DATE  = 
ORIGINATOR     = 

OBJECT_NAME    = STARLINK-36066
OBJECT_ID      = 2025-270E
CENTER_NAME    = EARTH
REF_FRAME      = TEME
TIME_SYSTEM    = UTC
MEAN_ELEMENT_THEORY = SGP/SGP4

EPOCH          = 2025-12-10T04:00:01.998720
MEAN_MOTION    = 15.52903369
ECCENTRICITY   = .0001721
INCLINATION    = 42.9993
RA_OF_ASC_NODE = 207.7722
ARG_OF_PERICENTER = 269.9314
MEAN_ANOMALY   = 142.6171

EPHEMERIS_TYPE = 0
CLASSIFICATION_TYPE = U
NORAD_CAT_ID   = 66592
ELEMENT_SET_NO = 999
REV_AT_EPOCH   = 388
BSTAR          = -.33717E-1
MEAN_MOTION_DOT = -.1930444E-1
MEAN_MOTION_DDOT = 0

CCSDS_OMM_VERS = 2.0
CREATION_DATE  = 
ORIGINATOR     = 

OBJECT_NAME    = STARLINK-36031
OBJECT_ID      = 2025-270F
CENTER_NAME    = EARTH
REF_FRAME      = TEME
TIME_SYSTEM    = UTC
MEAN_ELEMENT_THEORY = SGP/SGP4

EPOCH          = 2025-12-10T04:00:01.998720
MEAN_MOTION    = 15.52892303
ECCENTRICITY   = .0001546
INCLINATION    = 42.9994
RA_OF_ASC_NODE = 207.7676
ARG_OF_PERICENTER = 263.9440
MEAN_ANOMALY   = 150.5243

EPHEMERIS_TYPE = 0
CLASSIFICATION_TYPE = U
NORAD_CAT_ID   = 66593
ELEMENT_SET_NO = 999
REV_AT_EPOCH   = 398
BSTAR          = -.33245E-1
MEAN_MOTION_DOT = -.1872015E-1
MEAN_MOTION_DDOT = 0

CCSDS_OMM_VERS = 2.0
CREATION_DATE  = 
ORIGINATOR     = 

OBJECT_NAME    = STARLINK-36032
OBJECT_ID      = 2025-270G
CENTER_NAME    = EARTH
REF_FRAME      = TEME
TIME_SYSTEM    = UTC
MEAN_ELEMENT_THEORY = SGP/SGP4

EPOCH          = 2025-12-10T04:00:01.998720
MEAN_MOTION    = 15.52904754
ECCENTRICITY   = .0001708
INCLINATION    = 42.9995
RA_OF_ASC_NODE = 207.7627
ARG_OF_PERICENTER = 268.7970
MEAN_ANOMALY   = 147.5850

EPHEMERIS_TYPE = 0
CLASSIFICATION_TYPE = U
NORAD_CAT_ID   = 66594
ELEMENT_SET_NO = 999
REV_AT_EPOCH   = 372
BSTAR          = -.33831E-1
MEAN_MOTION_DOT = -.1936345E-1
MEAN_MOTION_DDOT = 0

CCSDS_OMM_VERS = 2.0
CREATION_DATE  = 
ORIGINATOR     = 

OBJECT_NAME    = STARLINK-35711
OBJECT_ID      = 2025-270H
CENTER_NAME    = EARTH
REF_FRAME      = TEME
TIME_SYSTEM    = UTC
MEAN_ELEMENT_THEORY = SGP/SGP4

EPOCH          = 2025-12-10T04:00:01.998720
MEAN_MOTION    = 15.52898349
ECCENTRICITY   = .0001578
INCLINATION    = 42.9996
RA_OF_ASC_NODE = 207.7574
ARG_OF_PERICENTER = 263.3539
MEAN_ANOMALY   = 154.9466

EPHEMERIS_TYPE = 0
CLASSIFICATION_TYPE = U
NORAD_CAT_ID   = 66595
ELEMENT_SET_NO = 999
REV_AT_EPOCH   = 409
BSTAR          = -.33432E-1
MEAN_MOTION_DOT = -.18817E-1
MEAN_MOTION_DDOT = 0

CCSDS_OMM_VERS = 2.0
CREATION_DATE  = 
ORIGINATOR     = 

OBJECT_NAME    = STARLINK-35811
OBJECT_ID      = 2025-270J
CENTER_NAME    = EARTH
REF_FRAME      = TEME
TIME_SYSTEM    = UTC
MEAN_ELEMENT_THEORY = SGP/SGP4

EPOCH          = 2025-12-10T04:00:01.998720
MEAN_MOTION    = 15.52904428
ECCENTRICITY   = .000175
INCLINATION    = 42.9998
RA_OF_ASC_NODE = 207.7526
ARG_OF_PERICENTER = 270.5844
MEAN_ANOMALY   = 149.6334

EPHEMERIS_TYPE = 0
CLASSIFICATION_TYPE = U
NORAD_CAT_ID   = 66596
ELEMENT_SET_NO = 999
REV_AT_EPOCH   = 409
BSTAR          = -.33908E-1
MEAN_MOTION_DOT = -.1940322E-1
MEAN_MOTION_DDOT = 0

CCSDS_OMM_VERS = 2.0
CREATION_DATE  = 
ORIGINATOR     = 

OBJECT_NAME    = STARLINK-35820
OBJECT_ID      = 2025-270K
CENTER_NAME    = EARTH
REF_FRAME      = TEME
TIME_SYSTEM    = UTC
MEAN_ELEMENT_THEORY = SGP/SGP4

EPOCH          = 2025-12-10T04:00:01.998720
MEAN_MOTION    = 15.52910693
ECCENTRICITY   = .0001708
INCLINATION    = 42.9995
RA_OF_ASC_NODE = 207.7479
ARG_OF_PERICENTER = 266.4669
MEAN_ANOMALY   = 155.6642

EPHEMERIS_TYPE = 0
CLASSIFICATION_TYPE = U
NORAD_CAT_ID   = 66597
ELEMENT_SET_NO = 999
REV_AT_EPOCH   = 409
BSTAR          = -.34084E-1
MEAN_MOTION_DOT = -.1949738E-1
MEAN_MOTION_DDOT = 0

CCSDS_OMM_VERS = 2.0
CREATION_DATE  = 
ORIGINATOR     = 

OBJECT_NAME    = STARLINK-35981
OBJECT_ID      = 2025-270L
CENTER_NAME    = EARTH
REF_FRAME      = TEME
TIME_SYSTEM    = UTC
MEAN_ELEMENT_THEORY = SGP/SGP4

EPOCH          = 2025-12-10T04:00:01.998720
MEAN_MOTION    = 15.52904307
ECCENTRICITY   = .0001621
INCLINATION    = 42.9999
RA_OF_ASC_NODE = 207.7433
ARG_OF_PERICENTER = 268.1419
MEAN_ANOMALY   = 155.9048

EPHEMERIS_TYPE = 0
CLASSIFICATION_TYPE = U
NORAD_CAT_ID   = 66598
ELEMENT_SET_NO = 999
REV_AT_EPOCH   = 382
BSTAR          = -.33365E-1
MEAN_MOTION_DOT = -.1878776E-1
MEAN_MOTION_DDOT = 0

